[{"OBJECT_NAME":"ARCSTONE","OBJECT_ID":"2025-135N","EPOCH":"2026-03-09T21:21:29.017152","MEAN_MOTION":15.28638458,"ECCENTRICITY":0.00041199,"INCLINATION":97.4495,"RA_OF_ASC_NODE":185.9194,"ARG_OF_PERICENTER":166.7863,"MEAN_ANOMALY":193.3485,"EPHEMERIS_TYPE":0,"CLASSIFICATION_TYPE":"U","NORAD_CAT_ID":64540,"ELEMENT_SET_NO":999,"REV_AT_EPOCH":3984,"BSTAR":0.00094899777,"MEAN_MOTION_DOT":0.00026427,"MEAN_MOTION_DDOT":0},{"OBJECT_NAME":"STARLINK-36522","OBJECT_ID":"2026-008S","EPOCH":"2026-03-09T10:30:29.180736","MEAN_MOTION":15.27623629,"ECCENTRICITY":0.00029915,"INCLINATION":43.0018,"RA_OF_ASC_NODE":206.658,"ARG_OF_PERICENTER":301.8818,"MEAN_ANOMALY":58.1742,"EPHEMERIS_TYPE":0,"CLASSIFICATION_TYPE":"U","NORAD_CAT_ID":67461,"ELEMENT_SET_NO":999,"REV_AT_EPOCH":953,"BSTAR":0.0012883897,"MEAN_MOTION_DOT":0.00035412,"MEAN_MOTION_DDOT":0}]
